1 45050U 20006G   23001.46857441 -.00007397  00000-0 -47840-3 0  9991
2 45050  53.0569 108.5250 0001605  71.8298 288.2866 15.06382244161139
1 45050U 20006G   23001.66761737 -.00006433  00000-0 -41358-3 0  9993
2 45050  53.0565 107.6312 0001623  67.2019 292.9141 15.06381027161163
1 45050U 20006G   23002.53012639  .00002299  00000-0  17318-3 0  9993
2 45050  53.0568 103.7597 0001537  68.1241 291.9912 15.06396522161294
1 45050U 20006G   23002.66282088  .00003013  00000-0  22109-3 0  9993
2 45050  53.0563 103.1636 0001590  71.0289 289.0873 15.06396291161311
1 45050U 20006G   23003.52533765  .00002107  00000-0  16034-3 0  9993
2 45050  53.0567  99.2914 0001610  62.3588 297.7564 15.06390608161440
1 45050U 20006G   23004.45419222  .00001869  00000-0  14433-3 0  9992
2 45050  53.0573  95.1215 0001461  63.0483 297.0655 15.06397892161583
1 45050U 20006G   23004.52053818  .00001722  00000-0  13446-3 0  9996
2 45050  53.0564  94.8247 0001583  63.3579 296.7572 15.06400528161594
1 45050U 20006G   23005.51572681  .00004257  00000-0  30435-3 0  9993
2 45050  53.0564  90.3580 0001638  61.0674 299.0479 15.06417210161742
1 45050U 20006G   23006.51094498 -.00011169  00000-0 -73273-3 0  9998
2 45050  53.0571  85.8893 0001288  36.7309 323.3768 15.06369200161894
1 45050U 20006G   23007.24076479 -.00003775  00000-0 -23476-3 0  9992
2 45050  53.0571  82.6155 0001867  70.4011 289.7180 15.06380014162001
1 45050U 20006G   23007.90423165  .00004377  00000-0  31259-3 0  9998
2 45050  53.0580  79.6382 0001572  53.0330 307.0803 15.06397117162102
1 45050U 20006G   23008.23597291  .00003946  00000-0  28375-3 0  9993
2 45050  53.0585  78.1482 0001670  53.8191 306.2952 15.06389408162159
1 45050U 20006G   23008.89943841  .00003038  00000-0  22279-3 0  9990
2 45050  53.0565  75.1682 0001934  54.5976 305.5193 15.06399156162259
1 45050U 20006G   23009.43020797  .00001178  00000-0  97951-4 0  9990
2 45050  53.0558  72.7860 0001691  51.6356 308.4785 15.06404617162339
1 45050U 20006G   23009.89463554  .00000840  00000-0  75289-4 0  9997
2 45050  53.0563  70.7028 0001880  50.8856 309.2300 15.06403169162406
1 45050U 20006G   23010.42541126 -.00000170  00000-0  74779-5 0  9991
2 45050  53.0557  68.3191 0001820  45.5142 314.5996 15.06399464162486
1 45050U 20006G   23011.42061236  .00000062  00000-0  23057-4 0  9992
2 45050  53.0559  63.8519 0001964  53.8888 306.2283 15.06400717162638
1 45050U 20006G   23012.81390093 -.00007125  00000-0 -46006-3 0  9999
2 45050  53.0554  57.5953 0002878  60.2432 299.8843 15.06378928162847
1 45050U 20006G   23013.41102926 -.00007659  00000-0 -49620-3 0  9999
2 45050  53.0570  54.9184 0001642  61.2957 298.8197 15.06370225162936
1 45050U 20006G   23015.46778525  .00017269  00000-0  11745-2 0  9992
2 45050  53.0546  45.6827 0001590  70.4361 289.6799 15.06427426163240
1 45050U 20006G   23015.79952220  .00011892  00000-0  81546-3 0  9997
2 45050  53.0548  44.1937 0002019  74.7274 285.3938 15.06418979163291
1 45050U 20006G   23016.46298074  .00012427  00000-0  85093-3 0  9998
2 45050  53.0543  41.2129 0001573  84.0531 276.0637 15.06432346163399
1 45050U 20006G   23016.79472348  .00004224  00000-0  30221-3 0  9991
2 45050  53.0553  39.7260 0001427  81.2879 278.8271 15.06407157163442
1 45050U 20006G   23017.32550960  .00000537  00000-0  54983-4 0  9993
2 45050  53.0529  37.3427 0002086  92.7734 267.3493 15.06390018163528
1 45050U 20006G   23018.32070306  .00018155  00000-0  12333-2 0  9991
2 45050  53.0537  32.8759 0001626  94.1536 265.9638 15.06438217163675
1 45050U 20006G   23018.71878479  .00017269  00000-0  11742-2 0  9999
2 45050  53.0544  31.0885 0001700  96.1904 263.9279 15.06436919163731
1 45050U 20006G   23019.44859652  .00013539  00000-0  92527-3 0  9999
2 45050  53.0542  27.8125 0001584  97.5071 262.6098 15.06433161163842
1 45050U 20006G   23020.44380419  .00002815  00000-0  20776-3 0  9993
2 45050  53.0531  23.3441 0001415  93.3610 266.7541 15.06407588163996
1 45050U 20006G   23025.35347932  .00006750  00000-0  47140-3 0  9997
2 45050  53.0544   1.3034 0001269  87.8165 272.2969 15.06414578164730
1 45050U 20006G   23025.61886908  .00003995  00000-0  28689-3 0  9992
2 45050  53.0554   0.1094 0001294  90.1024 270.0113 15.06405183164776
1 45050U 20006G   23026.08329722  .00002027  00000-0  15493-3 0  9994
2 45050  53.0554 358.0259 0001415  88.9026 271.2125 15.06404312164843
1 45050U 20006G   23027.27754108  .00000684  00000-0  64835-4 0  9998
2 45050  53.0547 352.6653 0001450  87.1219 272.9936 15.06400336165028
1 45050U 20006G   23028.27274492  .00003376  00000-0  24539-3 0  9999
2 45050  53.0537 348.1964 0001468  96.7862 263.3294 15.06403691165175
1 45050U 20006G   23028.86986979  .00000421  00000-0  47155-4 0  9992
2 45050  53.0532 345.5167 0001430  94.2099 265.9054 15.06398406165269
1 45050U 20006G   23029.86507194  .00001400  00000-0  11285-3 0  9993
2 45050  53.0532 341.0490 0001523  86.2221 273.8942 15.06401096165411
1 45050U 20006G   23030.26314898  .00003486  00000-0  25277-3 0  9998
2 45050  53.0535 339.2621 0001510  89.6904 270.4258 15.06408239165475
1 45050U 20006G   23030.66123348  .00000644  00000-0  62128-4 0  9990
2 45050  53.0521 337.4744 0001571  91.8802 268.2367 15.06398318165534
1 45050U 20006G   23031.25835389  .00001317  00000-0  10727-3 0  9996
2 45050  53.0537 334.7954 0001442  90.5625 269.5529 15.06401800165625
1 45050U 20006G   23031.85547329  .00002102  00000-0  15998-3 0  9994
2 45050  53.0535 332.1143 0001419  93.8083 266.3068 15.06404584165718
1 45050U 20006G   23032.25354632  .00006220  00000-0  43589-3 0  9994
2 45050  53.0534 330.3272 0001521  96.2739 263.8423 15.06419347165775
1 45050U 20006G   23033.18241248  .00000319  00000-0  40314-4 0  9992
2 45050  53.0535 326.1572 0001441  93.1130 267.0023 15.06397673165919
1 45050U 20006G   23034.17760807  .00008802  00000-0  60875-3 0  9997
2 45050  53.0530 321.6893 0001389  94.9510 265.1638 15.06420541166061
1 45050U 20006G   23034.77473972  .00005134  00000-0  36331-3 0  9992
2 45050  53.0539 319.0091 0001568  90.6948 269.4221 15.06402150166159
1 45050U 20006G   23035.17282084  .00006046  00000-0  42434-3 0  9993
2 45050  53.0538 317.2223 0001598  87.8478 272.2694 15.06406414166214
1 45050U 20006G   23035.76994099  .00004642  00000-0  33027-3 0  9992
2 45050  53.0546 314.5419 0001692  89.0547 271.0636 15.06408708166307
1 45050U 20006G   23036.16801709  .00007291  00000-0  50759-3 0  9996
2 45050  53.0533 312.7527 0001602  97.1203 262.9969 15.06417556166368
1 45050U 20006G   23036.89783965  .00004026  00000-0  28903-3 0  9998
2 45050  53.0531 309.4765 0001507 102.0411 258.0747 15.06402671166478
1 45050U 20006G   23037.16322465  .00007024  00000-0  48979-3 0  9999
2 45050  53.0530 308.2857 0001415 101.5306 258.5842 15.06412221166519
1 45050U 20006G   23037.89304036  .00004069  00000-0  29185-3 0  9997
2 45050  53.0533 305.0086 0001374  99.8396 260.2748 15.06408152166628
1 45050U 20006G   23038.02573287  .00006301  00000-0  44133-3 0  9990
2 45050  53.0527 304.4157 0001269  86.7758 273.3376 15.06413215166643
1 45050U 20006G   23038.88824419  .00004268  00000-0  30520-3 0  9995
2 45050  53.0526 300.5453 0001153  83.5503 276.5617 15.06406927166772
1 45050U 20006G   23038.95459036  .00004282  00000-0  30611-3 0  9999
2 45050  53.0524 300.2475 0001141  84.2986 275.8133 15.06407434166781
1 45050U 20006G   23039.81710055  .00002536  00000-0  18906-3 0  9999
2 45050  53.0523 296.3736 0001131  91.4356 268.6762 15.06403492166918
1 45050U 20006G   23040.08248770  .00002127  00000-0  16165-3 0  9991
2 45050  53.0521 295.1820 0001149 104.6055 255.5061 15.06402042166950
1 45050U 20006G   23040.81230781 -.00000143  00000-0  92962-5 0  9993
2 45050  53.0523 291.9024 0001533 141.6188 218.4910 15.06393414167063
1 45050U 20006G   23041.07769030  .00004548  00000-0  32394-3 0  9999
2 45050  53.0530 290.7089 0001522 133.2849 226.8268 15.06406352167108
1 45050U 20006G   23041.80751140  .00003530  00000-0  25572-3 0  9993
2 45050  53.0515 287.4357 0001347 127.6609 232.4503 15.06400382167212
1 45050U 20006G   23042.53732883  .00003014  00000-0  22115-3 0  9994
2 45050  53.0526 284.1627 0001103  87.9257 272.1858 15.06400574167324
1 45050U 20006G   23042.80271610 -.00000237  00000-0  29628-5 0  9993
2 45050  53.0514 282.9687 0001423 102.9458 257.1690 15.06397440167367
1 45050U 20006G   23042.93540889  .00001196  00000-0  99138-4 0  9990
2 45050  53.0517 282.3729 0001320  99.4008 260.7130 15.06400788167389
1 45050U 20006G   23044.32869588  .00001795  00000-0  13936-3 0  9991
2 45050  53.0519 276.1189 0001260  83.5996 276.5136 15.06399035167591
1 45050U 20006G   23045.58928705  .00001791  00000-0  13911-3 0  9996
2 45050  53.0508 270.4581 0001660  91.5549 268.5630 15.06398872167788
1 45050U 20006G   23045.65563469  .00000861  00000-0  76686-4 0  9992
2 45050  53.0505 270.1602 0001576  92.1200 267.9969 15.06395752167796
1 45050U 20006G   23046.51814024  .00001127  00000-0  94523-4 0  9990
2 45050  53.0503 266.2883 0001241  92.9943 267.1188 15.06400153167924
1 45050U 20006G   23046.91621476  .00003571  00000-0  25845-3 0  9996
2 45050  53.0510 264.5009 0001126 106.4062 253.7051 15.06411882167985
1 45050U 20006G   23047.38065143 -.00003114  00000-0 -19034-3 0  9999
2 45050  53.0503 262.4158 0001146  94.6047 265.5073 15.06387517168053
1 45050U 20006G   23047.91142431  .00001100  00000-0  92704-4 0  9991
2 45050  53.0504 260.0337 0001095  87.9989 272.1125 15.06398548168137
1 45050U 20006G   23048.37585417  .00001024  00000-0  87622-4 0  9995
2 45050  53.0502 257.9480 0001101  97.1326 262.9788 15.06396170168204
1 45050U 20006G   23048.84028581  .00001302  00000-0  10632-3 0  9996
2 45050  53.0504 255.8636 0001166  88.8435 271.2687 15.06394213168279
1 45050U 20006G   23049.50375851  .00003888  00000-0  27979-3 0  9998
2 45050  53.0508 252.8848 0001094  84.8365 275.2748 15.06391186168372
1 45050U 20006G   23050.56530033  .00004233  00000-0  30282-3 0  9997
2 45050  53.0508 248.1195 0001191  80.6404 279.4720 15.06407230168870
